{
  "norad_id": 68359,
  "name": "CENTISPACE-1 OBJECT K",
  "history": [
    {
      "epoch": "2026-03-28T20:51:56.577312",
      "apogee_km": 653.8706708861391,
      "perigee_km": 633.2750128805174,
      "latitude_deg": -53.212947771159925,
      "longitude_deg": 19.36286367988214,
      "semi_major_axis_km": 7021.7098418833275,
      "eccentricity": 0.00146657,
      "inclination_deg": 54.9801,
      "raan_deg": 3.3573,
      "arg_perigee_deg": 314.9648,
      "mean_anomaly_deg": 45.0162,
      "mean_motion_rev_day": 14.75497382
    }
  ]
}